{
  "norad_id": 63140,
  "name": "STARLINK-11607 [DTC]",
  "history": [
    {
      "epoch": "2026-03-28T12:01:37.856640Z",
      "apogee_km": 357.3371740369039,
      "perigee_km": 355.40639036904577,
      "latitude_deg": 3.978393632328225e-05,
      "longitude_deg": 130.73103181825127,
      "height_km": 355.76664929670994,
      "semi_major_axis_km": 6734.5087822029745,
      "eccentricity": 0.00014335,
      "inclination_deg": 43.0031,
      "raan_deg": 137.0594,
      "arg_perigee_deg": 293.0453,
      "mean_anomaly_deg": 67.0264,
      "mean_motion_rev_day": 15.70883133
    }
  ]
}